[{"OBJECT_NAME":"APRIZESAT 2","OBJECT_ID":"2004-025A","EPOCH":"2026-03-04T00:12:51.647040","MEAN_MOTION":14.37983329,"ECCENTRICITY":0.0105127,"INCLINATION":98.0901,"RA_OF_ASC_NODE":234.9972,"ARG_OF_PERICENTER":207.0277,"MEAN_ANOMALY":152.5415,"EPHEMERIS_TYPE":0,"CLASSIFICATION_TYPE":"U","NORAD_CAT_ID":28366,"ELEMENT_SET_NO":999,"REV_AT_EPOCH":13652,"BSTAR":0.00016323,"MEAN_MOTION_DOT":4.83e-6,"MEAN_MOTION_DDOT":0},{"OBJECT_NAME":"SAUDICOMSAT 1","OBJECT_ID":"2004-025D","EPOCH":"2026-03-03T13:20:55.747392","MEAN_MOTION":14.55380224,"ECCENTRICITY":0.0031945,"INCLINATION":98.5808,"RA_OF_ASC_NODE":69.8252,"ARG_OF_PERICENTER":349.2906,"MEAN_ANOMALY":10.7606,"EPHEMERIS_TYPE":0,"CLASSIFICATION_TYPE":"U","NORAD_CAT_ID":28369,"ELEMENT_SET_NO":999,"REV_AT_EPOCH":14876,"BSTAR":0.00016822,"MEAN_MOTION_DOT":6.85e-6,"MEAN_MOTION_DDOT":0},{"OBJECT_NAME":"SAUDICOMSAT 2","OBJECT_ID":"2004-025E","EPOCH":"2026-03-03T13:01:25.265856","MEAN_MOTION":14.49903433,"ECCENTRICITY":0.005489,"INCLINATION":98.6685,"RA_OF_ASC_NODE":71.7859,"ARG_OF_PERICENTER":218.6992,"MEAN_ANOMALY":141.0263,"EPHEMERIS_TYPE":0,"CLASSIFICATION_TYPE":"U","NORAD_CAT_ID":28370,"ELEMENT_SET_NO":999,"REV_AT_EPOCH":14479,"BSTAR":0.00012309,"MEAN_MOTION_DOT":4.35e-6,"MEAN_MOTION_DDOT":0},{"OBJECT_NAME":"APRIZESAT 1","OBJECT_ID":"2004-025G","EPOCH":"2026-03-03T21:53:25.625760","MEAN_MOTION":14.51709817,"ECCENTRICITY":0.004576,"INCLINATION":98.6343,"RA_OF_ASC_NODE":70.7553,"ARG_OF_PERICENTER":114.7229,"MEAN_ANOMALY":245.8738,"EPHEMERIS_TYPE":0,"CLASSIFICATION_TYPE":"U","NORAD_CAT_ID":28372,"ELEMENT_SET_NO":999,"REV_AT_EPOCH":14663,"BSTAR":0.00012027,"MEAN_MOTION_DOT":4.4e-6,"MEAN_MOTION_DDOT":0},{"OBJECT_NAME":"NANOSAT-1","OBJECT_ID":"2004-049B","EPOCH":"2026-03-03T20:07:09.763680","MEAN_MOTION":14.79899022,"ECCENTRICITY":0.0002815,"INCLINATION":98.2088,"RA_OF_ASC_NODE":197.0458,"ARG_OF_PERICENTER":271.1968,"MEAN_ANOMALY":88.8921,"EPHEMERIS_TYPE":0,"CLASSIFICATION_TYPE":"U","NORAD_CAT_ID":28493,"ELEMENT_SET_NO":999,"REV_AT_EPOCH":13986,"BSTAR":0.00027434,"MEAN_MOTION_DOT":2.015e-5,"MEAN_MOTION_DDOT":0},{"OBJECT_NAME":"SAUDICOMSAT 7","OBJECT_ID":"2007-012C","EPOCH":"2026-03-03T19:13:30.046944","MEAN_MOTION":14.65959779,"ECCENTRICITY":0.0056083,"INCLINATION":98.3669,"RA_OF_ASC_NODE":34.8511,"ARG_OF_PERICENTER":165.4573,"MEAN_ANOMALY":194.8259,"EPHEMERIS_TYPE":0,"CLASSIFICATION_TYPE":"U","NORAD_CAT_ID":31119,"ELEMENT_SET_NO":999,"REV_AT_EPOCH":699,"BSTAR":0.00018362,"MEAN_MOTION_DOT":9.75e-6,"MEAN_MOTION_DDOT":0},{"OBJECT_NAME":"SAUDICOMSAT 6","OBJECT_ID":"2007-012E","EPOCH":"2026-03-04T03:19:39.887904","MEAN_MOTION":14.62419788,"ECCENTRICITY":0.0070786,"INCLINATION":98.398,"RA_OF_ASC_NODE":28.7836,"ARG_OF_PERICENTER":294.4084,"MEAN_ANOMALY":64.9742,"EPHEMERIS_TYPE":0,"CLASSIFICATION_TYPE":"U","NORAD_CAT_ID":31121,"ELEMENT_SET_NO":999,"REV_AT_EPOCH":483,"BSTAR":0.00023692,"MEAN_MOTION_DOT":1.188e-5,"MEAN_MOTION_DDOT":0},{"OBJECT_NAME":"SAUDICOMSAT 5","OBJECT_ID":"2007-012H","EPOCH":"2026-03-03T20:27:56.106144","MEAN_MOTION":14.67988157,"ECCENTRICITY":0.00488387,"INCLINATION":98.3382,"RA_OF_ASC_NODE":35.6713,"ARG_OF_PERICENTER":96.8024,"MEAN_ANOMALY":263.8741,"EPHEMERIS_TYPE":0,"CLASSIFICATION_TYPE":"U","NORAD_CAT_ID":31124,"ELEMENT_SET_NO":999,"REV_AT_EPOCH":814,"BSTAR":0.00021225018,"MEAN_MOTION_DOT":1.185e-5,"MEAN_MOTION_DDOT":0},{"OBJECT_NAME":"SAUDICOMSAT 3","OBJECT_ID":"2007-012J","EPOCH":"2026-03-03T20:36:05.023008","MEAN_MOTION":14.70506324,"ECCENTRICITY":0.0039963,"INCLINATION":98.3039,"RA_OF_ASC_NODE":36.2374,"ARG_OF_PERICENTER":26.8213,"MEAN_ANOMALY":333.5047,"EPHEMERIS_TYPE":0,"CLASSIFICATION_TYPE":"U","NORAD_CAT_ID":31125,"ELEMENT_SET_NO":999,"REV_AT_EPOCH":934,"BSTAR":0.00029299,"MEAN_MOTION_DOT":1.745e-5,"MEAN_MOTION_DDOT":0},{"OBJECT_NAME":"SAUDICOMSAT 4","OBJECT_ID":"2007-012L","EPOCH":"2026-03-03T09:16:18.729696","MEAN_MOTION":14.64366766,"ECCENTRICITY":0.00625225,"INCLINATION":98.3871,"RA_OF_ASC_NODE":32.88,"ARG_OF_PERICENTER":228.2381,"MEAN_ANOMALY":131.3467,"EPHEMERIS_TYPE":0,"CLASSIFICATION_TYPE":"U","NORAD_CAT_ID":31127,"ELEMENT_SET_NO":999,"REV_AT_EPOCH":580,"BSTAR":0.00017278202,"MEAN_MOTION_DOT":8.85e-6,"MEAN_MOTION_DDOT":0},{"OBJECT_NAME":"APRIZESAT 4","OBJECT_ID":"2009-041D","EPOCH":"2026-03-04T02:59:41.283168","MEAN_MOTION":14.83696311,"ECCENTRICITY":0.0042279,"INCLINATION":98.1498,"RA_OF_ASC_NODE":136.3326,"ARG_OF_PERICENTER":303.2843,"MEAN_ANOMALY":56.4324,"EPHEMERIS_TYPE":0,"CLASSIFICATION_TYPE":"U","NORAD_CAT_ID":35684,"ELEMENT_SET_NO":999,"REV_AT_EPOCH":89578,"BSTAR":0.00015327,"MEAN_MOTION_DOT":1.227e-5,"MEAN_MOTION_DDOT":0},{"OBJECT_NAME":"APRIZESAT 3","OBJECT_ID":"2009-041F","EPOCH":"2026-03-03T19:47:47.431392","MEAN_MOTION":14.95871944,"ECCENTRICITY":0.0063231,"INCLINATION":98.1886,"RA_OF_ASC_NODE":211.1211,"ARG_OF_PERICENTER":55.8967,"MEAN_ANOMALY":304.823,"EPHEMERIS_TYPE":0,"CLASSIFICATION_TYPE":"U","NORAD_CAT_ID":35686,"ELEMENT_SET_NO":999,"REV_AT_EPOCH":90062,"BSTAR":0.00029057,"MEAN_MOTION_DOT":3.314e-5,"MEAN_MOTION_DDOT":0},{"OBJECT_NAME":"S-NET D","OBJECT_ID":"2018-014G","EPOCH":"2026-03-03T17:34:39.279648","MEAN_MOTION":15.15532171,"ECCENTRICITY":0.00094865,"INCLINATION":97.5448,"RA_OF_ASC_NODE":328.2209,"ARG_OF_PERICENTER":33.9443,"MEAN_ANOMALY":326.2394,"EPHEMERIS_TYPE":0,"CLASSIFICATION_TYPE":"U","NORAD_CAT_ID":43186,"ELEMENT_SET_NO":999,"REV_AT_EPOCH":44278,"BSTAR":0.000448139,"MEAN_MOTION_DOT":8.439e-5,"MEAN_MOTION_DDOT":0},{"OBJECT_NAME":"S-NET B","OBJECT_ID":"2018-014H","EPOCH":"2026-03-03T16:13:11.008704","MEAN_MOTION":15.15502968,"ECCENTRICITY":0.0009952,"INCLINATION":97.5455,"RA_OF_ASC_NODE":328.1481,"ARG_OF_PERICENTER":29.1842,"MEAN_ANOMALY":330.9945,"EPHEMERIS_TYPE":0,"CLASSIFICATION_TYPE":"U","NORAD_CAT_ID":43187,"ELEMENT_SET_NO":999,"REV_AT_EPOCH":44277,"BSTAR":0.00045932102,"MEAN_MOTION_DOT":8.646e-5,"MEAN_MOTION_DDOT":0},{"OBJECT_NAME":"S-NET A","OBJECT_ID":"2018-014J","EPOCH":"2026-03-03T17:33:45.129312","MEAN_MOTION":15.15538717,"ECCENTRICITY":0.00099032,"INCLINATION":97.5465,"RA_OF_ASC_NODE":328.3934,"ARG_OF_PERICENTER":30.1926,"MEAN_ANOMALY":329.9875,"EPHEMERIS_TYPE":0,"CLASSIFICATION_TYPE":"U","NORAD_CAT_ID":43188,"ELEMENT_SET_NO":999,"REV_AT_EPOCH":44278,"BSTAR":0.00044523927,"MEAN_MOTION_DOT":8.387e-5,"MEAN_MOTION_DDOT":0},{"OBJECT_NAME":"S-NET C","OBJECT_ID":"2018-014K","EPOCH":"2026-03-03T16:17:57.572448","MEAN_MOTION":15.15495189,"ECCENTRICITY":0.00110673,"INCLINATION":97.5478,"RA_OF_ASC_NODE":328.3992,"ARG_OF_PERICENTER":21.8475,"MEAN_ANOMALY":338.3227,"EPHEMERIS_TYPE":0,"CLASSIFICATION_TYPE":"U","NORAD_CAT_ID":43189,"ELEMENT_SET_NO":999,"REV_AT_EPOCH":44132,"BSTAR":0.00046260601,"MEAN_MOTION_DOT":8.708e-5,"MEAN_MOTION_DDOT":0},{"OBJECT_NAME":"SALSAT","OBJECT_ID":"2020-068K","EPOCH":"2026-03-03T18:42:46.219968","MEAN_MOTION":15.28039347,"ECCENTRICITY":0.00087313,"INCLINATION":97.8847,"RA_OF_ASC_NODE":59.5668,"ARG_OF_PERICENTER":321.6728,"MEAN_ANOMALY":38.3888,"EPHEMERIS_TYPE":0,"CLASSIFICATION_TYPE":"U","NORAD_CAT_ID":46495,"ELEMENT_SET_NO":999,"REV_AT_EPOCH":29925,"BSTAR":0.00046597086,"MEAN_MOTION_DOT":0.00012684,"MEAN_MOTION_DDOT":0}]
