APRIZESAT 2             
1 28366U 04025A   26063.00893110  .00000483  00000+0  16323-3 0  9997
2 28366  98.0901 234.9972 0105127 207.0277 152.5415 14.37983329136520
SAUDICOMSAT 1           
1 28369U 04025D   26062.55620078  .00000685  00000+0  16822-3 0  9998
2 28369  98.5808  69.8252 0031945 349.2906  10.7606 14.55380224148765
SAUDICOMSAT 2           
1 28370U 04025E   26062.54265354  .00000435  00000+0  12309-3 0  9990
2 28370  98.6685  71.7859 0054890 218.6992 141.0263 14.49903433144796
APRIZESAT 1             
1 28372U 04025G   26062.91210215  .00000440  00000+0  12027-3 0  9992
2 28372  98.6343  70.7553 0045760 114.7229 245.8738 14.51709817146632
NANOSAT-1               
1 28493U 04049B   26062.83830745  .00002015  00000+0  27434-3 0  9997
2 28493  98.2088 197.0458 0002815 271.1968  88.8921 14.79899022139861
SAUDICOMSAT 7           
1 31119U 07012C   26062.80104221  .00000975  00000+0  18362-3 0  9992
2 31119  98.3669  34.8511 0056083 165.4573 194.8259 14.65959779  6997
SAUDICOMSAT 6           
1 31121U 07012E   26063.13865611  .00001188  00000+0  23692-3 0  9998
2 31121  98.3980  28.7836 0070786 294.4084  64.9742 14.62419788  4837
SAUDICOMSAT 5           
1 31124U 07012H   26062.85273271  .00001185  00000+0  21225-3 0  9991
2 31124  98.3382  35.6713 0048838  96.8024 263.8741 14.67988157  8141
SAUDICOMSAT 3           
1 31125U 07012J   26062.85839147  .00001745  00000+0  29299-3 0  9993
2 31125  98.3039  36.2374 0039963  26.8213 333.5047 14.70506324  9346
SAUDICOMSAT 4           
1 31127U 07012L   26062.38632789  .00000885  00000+0  17278-3 0  9994
2 31127  98.3871  32.8800 0062522 228.2381 131.3467 14.64366766  5803
APRIZESAT 4             
1 35684U 09041D   26063.12478337  .00001227  00000+0  15327-3 0  9994
2 35684  98.1498 136.3326 0042279 303.2843  56.4324 14.83696311895781
APRIZESAT 3             
1 35686U 09041F   26062.82485453  .00003314  00000+0  29057-3 0  9993
2 35686  98.1886 211.1211 0063231  55.8967 304.8230 14.95871944900623
S-NET D                 
1 43186U 18014G   26062.73239907  .00008439  00000+0  44814-3 0  9999
2 43186  97.5448 328.2209 0009486  33.9443 326.2394 15.15532171442785
S-NET B                 
1 43187U 18014H   26062.67582186  .00008646  00000+0  45932-3 0  9995
2 43187  97.5455 328.1481 0009952  29.1842 330.9945 15.15502968442777
S-NET A                 
1 43188U 18014J   26062.73177233  .00008387  00000+0  44524-3 0  9994
2 43188  97.5465 328.3934 0009903  30.1926 329.9875 15.15538717442787
S-NET C                 
1 43189U 18014K   26062.67913857  .00008708  00000+0  46261-3 0  9995
2 43189  97.5478 328.3992 0011067  21.8475 338.3227 15.15495189441325
SALSAT                  
1 46495U 20068K   26062.77970162  .00012684  00000+0  46597-3 0  9993
2 46495  97.8847  59.5668 0008731 321.6728  38.3888 15.28039347299257
